OBJECT_NAME,OBJECT_ID,EPOCH,MEAN_MOTION,ECCENTRICITY,INCLINATION,RA_OF_ASC_NODE,ARG_OF_PERICENTER,MEAN_ANOMALY,EPHEMERIS_TYPE,CLASSIFICATION_TYPE,NORAD_CAT_ID,ELEMENT_SET_NO,REV_AT_EPOCH,BSTAR,MEAN_MOTION_DOT,MEAN_MOTION_DDOT
SAUDISAT 2,2004-025F,2026-07-06T22:46:15.147552,14.56695117,.00236555,98.5514,188.4419,234.4243,125.4749,0,U,28371,999,16862,.5855859E-4,.213E-5,0
COSMOS 2407,2004-028A,2026-07-07T01:53:32.720352,13.76336192,.00387652,82.9593,60.1004,194.8147,330.2282,0,U,28380,999,10261,.26134276E-4,.41E-6,0
COSMOS 2414,2005-002A,2026-07-07T00:01:53.135616,13.87927685,.00386725,82.9487,28.6554,273.0753,86.5986,0,U,28521,999,8656,.24786995E-4,.45E-6,0
INMARSAT 4-F1,2005-009A,2026-07-07T14:55:19.612128,1.00271295,.00026861,5.1933,42.7727,67.9867,216.7677,0,U,28628,999,7787,0,.44E-6,0
SJ-7,2005-024A,2026-07-07T00:22:04.953504,15.21855512,.00142015,97.7280,218.6551,328.0430,31.9943,0,U,28737,999,15104,.25954554E-3,.5842E-4,0
CUBESAT XI-V,2005-043F,2026-07-06T21:40:08.857056,14.72686848,.00149336,98.3006,343.9413,139.5987,220.6332,0,U,28895,999,10465,.21205115E-3,.1301E-4,0
HINODE (SOLAR-B),2006-041A,2026-07-07T11:43:26.390496,14.68651378,.00164675,98.0547,204.3417,219.8369,140.1629,0,U,29479,999,5785,.11006042E-3,.592E-5,0
SHIJIAN-6 02B (SJ-6 02B),2006-046B,2026-07-07T14:33:37.985760,15.01429554,.00143755,97.7150,217.5392,1.2302,358.8955,0,U,29506,999,7380,.10681415E-3,.132E-4,0
DMSP 5D-3 F17 (USA 191),2006-050A,2026-07-07T14:31:32.622816,14.14995903,.00101828,98.7382,194.7577,4.7689,355.3580,0,U,29522,999,1531,.36587873E-4,.27E-6,0
LAPAN-TUBSAT,2007-001A,2026-07-07T14:10:02.332992,14.85970627,.00133695,98.1352,188.2753,115.8452,244.4143,0,U,29709,999,5418,.3278386E-5,-.29E-6,0
HAIYANG-1B,2007-010A,2026-07-07T10:07:09.113664,14.31031939,.00143306,98.3507,169.4831,137.3096,222.9203,0,U,31113,999,353,.45705662E-4,.79E-6,0
COSMO-SKYMED 2,2007-059A,2026-07-07T14:48:03.852000,14.82162527,.00013385,97.8891,11.9188,92.5039,267.6327,0,U,32376,999,503,.48493024E-4,.334E-5,0
CARTOSAT-2A,2008-021A,2026-07-07T14:38:22.005024,14.79270189,.0012995,97.7617,236.6208,49.7975,310.4372,0,U,32783,999,98182,.71057978E-4,.479E-5,0
CUTE-1.7+APD II (CO-65),2008-021C,2026-07-07T12:46:42.043584,15.09654331,.00075492,97.8288,170.3776,330.9800,29.1008,0,U,32785,999,98826,.1921212E-3,.3026E-4,0
SEEDS II (CO-66),2008-021J,2026-07-06T23:27:44.284896,15.33467667,.00020947,97.7526,186.8299,175.3299,184.7963,0,U,32791,999,99032,.41927709E-3,.13488E-3,0
YUBILEINY (RS30),2008-025A,2026-07-07T14:53:19.924800,12.43179957,.00185039,82.5058,342.7282,266.6150,93.2813,0,U,32953,999,82223,-.46539482E-3,-.55E-6,0
FENGYUN 3A,2008-026A,2026-07-07T06:37:33.220416,14.19575424,.00098592,98.6886,128.7338,72.3325,287.8927,0,U,32958,999,93825,.4962596E-4,.61E-6,0
HUANJING 1A (HJ-1A),2008-041A,2026-07-07T14:19:01.731648,14.84039551,.00206791,97.6697,173.6469,72.7335,287.6141,0,U,33320,999,96143,.19510928E-3,.158E-4,0
HUANJING 1B (HJ-1B),2008-041B,2026-07-07T15:25:06.081600,14.83353965,.00376801,97.6533,176.8004,114.9977,245.5158,0,U,33321,999,96144,.55905222E-4,.412E-5,0
SHIJIAN-6 03A (SJ-6 03A),2008-053A,2026-07-07T15:00:11.263968,15.17375004,.00097582,97.8403,222.6580,306.5810,53.4524,0,U,33408,999,96606,.29728756E-3,.5872E-4,0
SHIJIAN-6 03B (SJ-6 03B),2008-053B,2026-07-07T15:40:39.963648,15.04371976,.00186304,97.8579,208.8834,337.1340,22.9054,0,U,33409,999,96582,.11084625E-3,.1486E-4,0
