SAUDISAT 2              
1 28371U 04025F   26187.94878643  .00000213  00000+0  58559-4 0  9996
2 28371  98.5514 188.4419 0023655 234.4243 125.4749 14.56695117168623
COSMOS 2407             
1 28380U 04028A   26188.07885093  .00000041  00000+0  26134-4 0  9994
2 28380  82.9593  60.1004 0038765 194.8147 330.2282 13.76336192102614
COSMOS 2414             
1 28521U 05002A   26188.00130944  .00000045  00000+0  24787-4 0  9991
2 28521  82.9487  28.6554 0038672 273.0753  86.5986 13.87927685 86564
INMARSAT 4-F1           
1 28628U 05009A   26188.62175477  .00000044  00000+0  00000+0 0  9990
2 28628   5.1933  42.7727 0002686  67.9867 216.7677  1.00271295 77875
SJ-7                    
1 28737U 05024A   26188.01533511  .00005842  00000+0  25955-3 0  9999
2 28737  97.7280 218.6551 0014201 328.0430  31.9943 15.21855512151043
CUBESAT XI-V            
1 28895U 05043F   26187.90288029  .00001301  00000+0  21205-3 0  9993
2 28895  98.3006 343.9413 0014933 139.5987 220.6332 14.72686848104657
HINODE (SOLAR-B)        
1 29479U 06041A   26188.48849989  .00000592  00000+0  11006-3 0  9992
2 29479  98.0547 204.3417 0016467 219.8369 140.1629 14.68651378 57856
SHIJIAN-6 02B (SJ-6 02B)
1 29506U 06046B   26188.60668965  .00001320  00000+0  10681-3 0  9993
2 29506  97.7150 217.5392 0014375   1.2302 358.8955 15.01429554 73807
DMSP 5D-3 F17 (USA 191) 
1 29522U 06050A   26188.60523869  .00000027  00000+0  36588-4 0  9997
2 29522  98.7382 194.7577 0010182   4.7689 355.3580 14.14995903 15319
LAPAN-TUBSAT            
1 29709U 07001A   26188.59030478 -.00000029  00000+0  32784-5 0  9996
2 29709  98.1352 188.2753 0013369 115.8452 244.4143 14.85970627 54188
HAIYANG-1B              
1 31113U 07010A   26188.42163326  .00000079  00000+0  45706-4 0  9990
2 31113  98.3507 169.4831 0014330 137.3096 222.9203 14.31031939  3530
COSMO-SKYMED 2          
1 32376U 07059A   26188.61671125  .00000334  00000+0  48493-4 0  9997
2 32376  97.8891  11.9188 0001338  92.5039 267.6327 14.82162527  5035
CARTOSAT-2A             
1 32783U 08021A   26188.60997691  .00000479  00000+0  71058-4 0  9990
2 32783  97.7617 236.6208 0012995  49.7975 310.4372 14.79270189981822
CUTE-1.7+APD II (CO-65) 
1 32785U 08021C   26188.53243106  .00003026  00000+0  19212-3 0  9993
2 32785  97.8288 170.3776 0007549 330.9800  29.1008 15.09654331988268
SEEDS II (CO-66)        
1 32791U 08021J   26187.97759589  .00013488  00000+0  41928-3 0  9996
2 32791  97.7526 186.8299 0002094 175.3299 184.7963 15.33467667990323
YUBILEINY (RS30)        
1 32953U 08025A   26188.62036950 -.00000055  00000+0 -46539-3 0  9994
2 32953  82.5058 342.7282 0018503 266.6150  93.2813 12.43179957822234
FENGYUN 3A              
1 32958U 08026A   26188.27607894  .00000061  00000+0  49626-4 0  9998
2 32958  98.6886 128.7338 0009859  72.3325 287.8927 14.19575424938251
HUANJING 1A (HJ-1A)     
1 33320U 08041A   26188.59654782  .00001580  00000+0  19511-3 0  9998
2 33320  97.6697 173.6469 0020679  72.7335 287.6141 14.84039551961436
HUANJING 1B (HJ-1B)     
1 33321U 08041B   26188.64243150  .00000412  00000+0  55905-4 0  9999
2 33321  97.6533 176.8004 0037680 114.9977 245.5158 14.83353965961446
SHIJIAN-6 03A (SJ-6 03A)
1 33408U 08053A   26188.62513037  .00005872  00000+0  29729-3 0  9999
2 33408  97.8403 222.6580 0009758 306.5810  53.4524 15.17375004966061
SHIJIAN-6 03B (SJ-6 03B)
1 33409U 08053B   26188.65324032  .00001486  00000+0  11085-3 0  9991
2 33409  97.8579 208.8834 0018630 337.1340  22.9054 15.04371976965823
